CCSDS_OMM_VERS = 2.0
CREATION_DATE  = 
ORIGINATOR     = 

OBJECT_NAME    = SL-14 R/B
OBJECT_ID      = 1991-042B
CENTER_NAME    = EARTH
REF_FRAME      = TEME
TIME_SYSTEM    = UTC
MEAN_ELEMENT_THEORY = SGP/SGP4

EPOCH          = 2026-02-16T00:20:33.631296
MEAN_MOTION    = 14.81807559
ECCENTRICITY   = .0015994
INCLINATION    = 82.4898
RA_OF_ASC_NODE = 240.5120
ARG_OF_PERICENTER = 316.2998
MEAN_ANOMALY   = 43.6948

EPHEMERIS_TYPE = 0
CLASSIFICATION_TYPE = U
NORAD_CAT_ID   = 21423
ELEMENT_SET_NO = 999
REV_AT_EPOCH   = 84986
BSTAR          = .54188E-4
MEAN_MOTION_DOT = .452E-5
MEAN_MOTION_DDOT = 0

CCSDS_OMM_VERS = 2.0
CREATION_DATE  = 
ORIGINATOR     = 

OBJECT_NAME    = ERS-1
OBJECT_ID      = 1991-050A
CENTER_NAME    = EARTH
REF_FRAME      = TEME
TIME_SYSTEM    = UTC
MEAN_ELEMENT_THEORY = SGP/SGP4

EPOCH          = 2026-02-16T01:54:10.517760
MEAN_MOTION    = 14.39431877
ECCENTRICITY   = .0030874
INCLINATION    = 98.7892
RA_OF_ASC_NODE = 64.7703
ARG_OF_PERICENTER = 266.2658
MEAN_ANOMALY   = 93.4998

EPHEMERIS_TYPE = 0
CLASSIFICATION_TYPE = U
NORAD_CAT_ID   = 21574
ELEMENT_SET_NO = 999
REV_AT_EPOCH   = 81262
BSTAR          = .13479E-3
MEAN_MOTION_DOT = .375E-5
MEAN_MOTION_DDOT = 0

CCSDS_OMM_VERS = 2.0
CREATION_DATE  = 
ORIGINATOR     = 

OBJECT_NAME    = ARIANE 40 R/B
OBJECT_ID      = 1991-050F
CENTER_NAME    = EARTH
REF_FRAME      = TEME
TIME_SYSTEM    = UTC
MEAN_ELEMENT_THEORY = SGP/SGP4

EPOCH          = 2026-02-16T02:41:41.400672
MEAN_MOTION    = 14.42877493
ECCENTRICITY   = .0004144
INCLINATION    = 98.2059
RA_OF_ASC_NODE = 100.1537
ARG_OF_PERICENTER = 127.9682
MEAN_ANOMALY   = 232.1884

EPHEMERIS_TYPE = 0
CLASSIFICATION_TYPE = U
NORAD_CAT_ID   = 21610
ELEMENT_SET_NO = 999
REV_AT_EPOCH   = 81588
BSTAR          = .11287E-3
MEAN_MOTION_DOT = .335E-5
MEAN_MOTION_DDOT = 0

CCSDS_OMM_VERS = 2.0
CREATION_DATE  = 
ORIGINATOR     = 

OBJECT_NAME    = INTERCOSMOS 25
OBJECT_ID      = 1991-086A
CENTER_NAME    = EARTH
REF_FRAME      = TEME
TIME_SYSTEM    = UTC
MEAN_ELEMENT_THEORY = SGP/SGP4

EPOCH          = 2026-02-16T02:37:35.279904
MEAN_MOTION    = 12.11939953
ECCENTRICITY   = .1486929
INCLINATION    = 82.6086
RA_OF_ASC_NODE = 323.0488
ARG_OF_PERICENTER = 163.4205
MEAN_ANOMALY   = 202.1497

EPHEMERIS_TYPE = 0
CLASSIFICATION_TYPE = U
NORAD_CAT_ID   = 21819
ELEMENT_SET_NO = 999
REV_AT_EPOCH   = 49407
BSTAR          = .24726E-3
MEAN_MOTION_DOT = .1284E-4
MEAN_MOTION_DDOT = 0

CCSDS_OMM_VERS = 2.0
CREATION_DATE  = 
ORIGINATOR     = 

OBJECT_NAME    = SL-8 R/B
OBJECT_ID      = 1992-008B
CENTER_NAME    = EARTH
REF_FRAME      = TEME
TIME_SYSTEM    = UTC
MEAN_ELEMENT_THEORY = SGP/SGP4

EPOCH          = 2026-02-16T03:14:46.495104
MEAN_MOTION    = 13.75970028
ECCENTRICITY   = .0034239
INCLINATION    = 82.9252
RA_OF_ASC_NODE = 283.8146
ARG_OF_PERICENTER = 192.8112
MEAN_ANOMALY   = 279.8300

EPHEMERIS_TYPE = 0
CLASSIFICATION_TYPE = U
NORAD_CAT_ID   = 21876
ELEMENT_SET_NO = 999
REV_AT_EPOCH   = 70645
BSTAR          = .54127E-4
MEAN_MOTION_DOT = .68E-6
MEAN_MOTION_DDOT = 0

CCSDS_OMM_VERS = 2.0
CREATION_DATE  = 
ORIGINATOR     = 

OBJECT_NAME    = SL-8 R/B
OBJECT_ID      = 1992-020B
CENTER_NAME    = EARTH
REF_FRAME      = TEME
TIME_SYSTEM    = UTC
MEAN_ELEMENT_THEORY = SGP/SGP4

EPOCH          = 2026-02-15T21:08:58.073280
MEAN_MOTION    = 13.75546523
ECCENTRICITY   = .0028832
INCLINATION    = 82.9338
RA_OF_ASC_NODE = 169.9483
ARG_OF_PERICENTER = 1.4416
MEAN_ANOMALY   = 113.1205

EPHEMERIS_TYPE = 0
CLASSIFICATION_TYPE = U
NORAD_CAT_ID   = 21938
ELEMENT_SET_NO = 999
REV_AT_EPOCH   = 69813
BSTAR          = .84785E-4
MEAN_MOTION_DOT = .97E-6
MEAN_MOTION_DDOT = 0

CCSDS_OMM_VERS = 2.0
CREATION_DATE  = 
ORIGINATOR     = 

OBJECT_NAME    = USA 81
OBJECT_ID      = 1992-023A
CENTER_NAME    = EARTH
REF_FRAME      = TEME
TIME_SYSTEM    = UTC
MEAN_ELEMENT_THEORY = SGP/SGP4

EPOCH          = 2026-02-15T19:02:18.967776
MEAN_MOTION    = 14.32359974
ECCENTRICITY   = .00027565
INCLINATION    = 85.0118
RA_OF_ASC_NODE = 144.0679
ARG_OF_PERICENTER = 97.4489
MEAN_ANOMALY   = 262.7017

EPHEMERIS_TYPE = 0
CLASSIFICATION_TYPE = U
NORAD_CAT_ID   = 21949
ELEMENT_SET_NO = 999
REV_AT_EPOCH   = 9165
BSTAR          = .67256752E-4
MEAN_MOTION_DOT = .202E-5
MEAN_MOTION_DDOT = 0

CCSDS_OMM_VERS = 2.0
CREATION_DATE  = 
ORIGINATOR     = 

OBJECT_NAME    = COSMOS 2219
OBJECT_ID      = 1992-076A
CENTER_NAME    = EARTH
REF_FRAME      = TEME
TIME_SYSTEM    = UTC
MEAN_ELEMENT_THEORY = SGP/SGP4

EPOCH          = 2026-02-16T03:47:32.172864
MEAN_MOTION    = 14.14078039
ECCENTRICITY   = .0020003
INCLINATION    = 71.0580
RA_OF_ASC_NODE = 63.0809
ARG_OF_PERICENTER = 236.0898
MEAN_ANOMALY   = 123.8323

EPHEMERIS_TYPE = 0
CLASSIFICATION_TYPE = U
NORAD_CAT_ID   = 22219
ELEMENT_SET_NO = 999
REV_AT_EPOCH   = 71533
BSTAR          = .12156E-3
MEAN_MOTION_DOT = .185E-5
MEAN_MOTION_DDOT = 0

CCSDS_OMM_VERS = 2.0
CREATION_DATE  = 
ORIGINATOR     = 

OBJECT_NAME    = SL-16 R/B
OBJECT_ID      = 1992-076B
CENTER_NAME    = EARTH
REF_FRAME      = TEME
TIME_SYSTEM    = UTC
MEAN_ELEMENT_THEORY = SGP/SGP4

EPOCH          = 2026-02-15T23:04:40.313280
MEAN_MOTION    = 14.16855169
ECCENTRICITY   = .0011211
INCLINATION    = 70.9975
RA_OF_ASC_NODE = 234.1428
ARG_OF_PERICENTER = 135.9072
MEAN_ANOMALY   = 334.9503

EPHEMERIS_TYPE = 0
CLASSIFICATION_TYPE = U
NORAD_CAT_ID   = 22220
ELEMENT_SET_NO = 999
REV_AT_EPOCH   = 71875
BSTAR          = -.66849E-4
MEAN_MOTION_DOT = -.182E-5
MEAN_MOTION_DDOT = 0

CCSDS_OMM_VERS = 2.0
CREATION_DATE  = 
ORIGINATOR     = 

OBJECT_NAME    = COSMOS 2221
OBJECT_ID      = 1992-080A
CENTER_NAME    = EARTH
REF_FRAME      = TEME
TIME_SYSTEM    = UTC
MEAN_ELEMENT_THEORY = SGP/SGP4

EPOCH          = 2026-02-16T04:03:17.502048
MEAN_MOTION    = 14.96115985
ECCENTRICITY   = .0012794
INCLINATION    = 82.5046
RA_OF_ASC_NODE = 299.6937
ARG_OF_PERICENTER = 265.7407
MEAN_ANOMALY   = 94.2353

EPHEMERIS_TYPE = 0
CLASSIFICATION_TYPE = U
NORAD_CAT_ID   = 22236
ELEMENT_SET_NO = 999
REV_AT_EPOCH   = 77757
BSTAR          = .17791E-3
MEAN_MOTION_DOT = .2029E-4
MEAN_MOTION_DDOT = 0

CCSDS_OMM_VERS = 2.0
CREATION_DATE  = 
ORIGINATOR     = 

OBJECT_NAME    = SL-16 R/B
OBJECT_ID      = 1992-093B
CENTER_NAME    = EARTH
REF_FRAME      = TEME
TIME_SYSTEM    = UTC
MEAN_ELEMENT_THEORY = SGP/SGP4

EPOCH          = 2026-02-16T04:26:33.497088
MEAN_MOTION    = 14.15443425
ECCENTRICITY   = .0005429
INCLINATION    = 71.0205
RA_OF_ASC_NODE = 49.4096
ARG_OF_PERICENTER = 317.0909
MEAN_ANOMALY   = 42.9790

EPHEMERIS_TYPE = 0
CLASSIFICATION_TYPE = U
NORAD_CAT_ID   = 22285
ELEMENT_SET_NO = 999
REV_AT_EPOCH   = 71011
BSTAR          = .1756E-3
MEAN_MOTION_DOT = .295E-5
MEAN_MOTION_DDOT = 0

CCSDS_OMM_VERS = 2.0
CREATION_DATE  = 
ORIGINATOR     = 

OBJECT_NAME    = COSMOS 2228
OBJECT_ID      = 1992-094A
CENTER_NAME    = EARTH
REF_FRAME      = TEME
TIME_SYSTEM    = UTC
MEAN_ELEMENT_THEORY = SGP/SGP4

EPOCH          = 2026-02-16T03:10:54.303744
MEAN_MOTION    = 14.97086776
ECCENTRICITY   = .001852
INCLINATION    = 82.5148
RA_OF_ASC_NODE = 257.9542
ARG_OF_PERICENTER = 18.9526
MEAN_ANOMALY   = 341.2381

EPHEMERIS_TYPE = 0
CLASSIFICATION_TYPE = U
NORAD_CAT_ID   = 22286
ELEMENT_SET_NO = 999
REV_AT_EPOCH   = 77283
BSTAR          = .18332E-3
MEAN_MOTION_DOT = .2146E-4
MEAN_MOTION_DDOT = 0

