SL-14 R/B               
1 21423U 91042B   26047.01427814  .00000452  00000+0  54188-4 0  9994
2 21423  82.4898 240.5120 0015994 316.2998  43.6948 14.81807559849860
ERS-1                   
1 21574U 91050A   26047.07928840  .00000375  00000+0  13479-3 0  9992
2 21574  98.7892  64.7703 0030874 266.2658  93.4998 14.39431877812626
ARIANE 40 R/B           
1 21610U 91050F   26047.11228473  .00000335  00000+0  11287-3 0  9994
2 21610  98.2059 100.1537 0004144 127.9682 232.1884 14.42877493815887
INTERCOSMOS 25          
1 21819U 91086A   26047.10943611  .00001284  00000+0  24726-3 0  9997
2 21819  82.6086 323.0488 1486929 163.4205 202.1497 12.11939953494073
SL-8 R/B                
1 21876U 92008B   26047.13526036  .00000068  00000+0  54127-4 0  9994
2 21876  82.9252 283.8146 0034239 192.8112 279.8300 13.75970028706454
SL-8 R/B                
1 21938U 92020B   26046.88122770  .00000097  00000+0  84785-4 0  9990
2 21938  82.9338 169.9483 0028832   1.4416 113.1205 13.75546523698138
USA 81                  
1 21949U 92023A   26046.79327509  .00000202  00000+0  67257-4 0  9995
2 21949  85.0118 144.0679 0002756  97.4489 262.7017 14.32359974 91655
COSMOS 2219             
1 22219U 92076A   26047.15801126  .00000185  00000+0  12156-3 0  9994
2 22219  71.0580  63.0809 0020003 236.0898 123.8323 14.14078039715334
SL-16 R/B               
1 22220U 92076B   26046.96157770 -.00000182  00000+0 -66849-4 0  9991
2 22220  70.9975 234.1428 0011211 135.9072 334.9503 14.16855169718755
COSMOS 2221             
1 22236U 92080A   26047.16895257  .00002029  00000+0  17791-3 0  9996
2 22236  82.5046 299.6937 0012794 265.7407  94.2353 14.96115985777579
SL-16 R/B               
1 22285U 92093B   26047.18510992  .00000295  00000+0  17560-3 0  9993
2 22285  71.0205  49.4096 0005429 317.0909  42.9790 14.15443425710111
COSMOS 2228             
1 22286U 92094A   26047.13257296  .00002146  00000+0  18332-3 0  9990
2 22286  82.5148 257.9542 0018520  18.9526 341.2381 14.97086776772835
